MACSAT 2 (M 2)          
1 20608U 90043B   12015.23086636  .00000456  00000-0  64346-4 0  5375
2 20608  89.7406  51.3391 0093011 174.0088 186.2264 14.72555345161947
TUBSAT A                
1 21577U 91050D   12014.85287916  .00000113  00000-0  51473-4 0  2678
2 21577  98.5889 330.5426 0006999 113.8744 246.3174 14.38708548 75596
S80/T                   
1 22078U 92052C   12014.44444137 -.00000037  00000-0  10000-3 0  1139
2 22078  66.0863 147.8601 0014673 234.4467 125.5188 12.86744816912849
HEALTHSAT 1             
1 22827U 93061E   12014.89506263  .00000120  00000-0  62973-4 0   329
2 22827  98.5509 322.5115 0008894 345.5966  14.4957 14.30380282954835
TUBSAT B                
1 22970U 94003B   12014.61548641  .00000051  00000-0  10000-3 0  7953
2 22970  82.5577 205.1966 0017371  56.4509 303.8250 13.16925829863894
CERISE                  
1 23606U 95033B   12014.52224519  .00001989  00000-0  23118-3 0  6425
2 23606  98.3491 189.6293 0005273 304.7314  55.3404 14.86578916891600
UPM/LBSAT               
1 23607U 95033C   12014.17630075  .00000436  00000-0  72090-4 0  8720
2 23607  98.1879 124.8222 0006936 125.5296 234.6545 14.75350685887755
FAISAT 2V               
1 24954U 97052B   12014.24468479  .00000066  00000-0  48413-4 0  3573
2 24954  82.9221 330.7905 0040352   7.8677 352.3106 13.79721409720435
MUBLCOM                 
1 25736U 99026B   12014.68928601  .00000617  00000-0  18653-3 0  5230
2 25736  97.7069 238.9239 0006427  43.1634 317.0060 14.45306054666747
RUBIN-3 & SL-8 R/B      
1 27561U 02054C   12014.56948880  .00000330  00000-0  87269-4 0  4872
2 27561  97.9780 177.7642 0047080 194.1235 165.8654 14.54079376484299
APRIZESAT 2             
1 28366U 04025A   12014.94429819  .00000113  00000-0  50593-4 0   981
2 28366  98.2017 334.1855 0108334 218.1249 141.2237 14.35786056395359
SAUDICOMSAT 1           
1 28369U 04025D   12015.01085954  .00000200  00000-0  60916-4 0  1473
2 28369  97.9598  19.8355 0034658  22.9062 337.3670 14.50931493399509
SAUDICOMSAT 2           
1 28370U 04025E   12014.50222795  .00000119  00000-0  44327-4 0  1505
2 28370  98.0394   2.0359 0059946  82.1207 278.6788 14.46019672398081
APRIZESAT 1             
1 28372U 04025G   12014.03235433  .00000067  00000-0  28635-4 0  1357
2 28372  97.9969   9.2729 0048086  54.0229 306.5405 14.48408342398674
NANOSAT-1               
1 28493U 04049B   12014.99283341  .00000475  00000-0  86213-4 0  1341
2 28493  98.3751  11.1439 0005066 147.8148 212.3364 14.70949558379574
SAUDICOMSAT 7           
1 31119U 07012C   12014.62744613  .00000389  00000-0  88724-4 0  4365
2 31119  97.8653  50.7146 0061927 181.9585 178.1364 14.59815138252824
SAUDICOMSAT 6           
1 31121U 07012E   12014.49948735  .00000368  00000-0  89075-4 0  4361
2 31121  97.8686  41.9718 0078303 208.5888 151.1007 14.56664506252270
SAUDICOMSAT 5           
1 31124U 07012H   12014.18779360  .00000404  00000-0  89121-4 0  4448
2 31124  97.8671  55.1315 0053458 170.5212 189.7013 14.61421490253038
SAUDICOMSAT 3           
1 31125U 07012J   12014.68639941  .00000415  00000-0  88749-4 0  4553
2 31125  97.8703  60.2028 0045336 156.5977 203.7298 14.62974423253370
SAUDICOMSAT 4           
1 31127U 07012L   12014.12152142  .00000384  00000-0  89803-4 0  4453
2 31127  97.8667  46.1810 0069828 196.1540 163.7436 14.58332069252491
APRIZESAT 4             
1 35684U 09041D   12014.78482658  .00000676  00000-0  10286-3 0  7768
2 35684  98.0699 285.8512 0049633 354.4606   5.6100 14.76521549132634
APRIZESAT 3             
1 35686U 09041F   12014.54142494  .00000980  00000-0  12086-3 0  7819
2 35686  98.0900 295.5408 0078470 330.4702  29.2090 14.83217853133184
AISSAT 1                
1 36797U 10035C   12015.07692142  .00000843  00000-0  11510-3 0  6084
2 36797  98.0787  90.4605 0011749 322.1304  37.9070 14.81269619 81679
